{
  "57993": {
    "noradId": "57993",
    "tle": [
      "1 57993C 23153C   25269.09840278  .00001314  00000+0  96951-4 0  2691",
      "2 57993  43.0019 243.3773 0001333 263.7521 119.8931 15.02537569    13"
    ]
  },
  "57994": {
    "noradId": "57994",
    "tle": [
      "1 57994C 23153D   25269.09770833 -.00005902  00000+0 -43555-3 0  2691",
      "2 57994  43.0019 243.2920 0001293 264.6297 151.3182 15.02538447    17"
    ]
  },
  "57995": {
    "noradId": "57995",
    "tle": [
      "1 57995C 23153E   25269.10118056  .00009961  00000+0  73513-3 0  2691",
      "2 57995  43.0019 243.2289 0001419 264.4408 188.3559 15.02518804    11"
    ]
  },
  "57997": {
    "noradId": "57997",
    "tle": [
      "1 57997C 23153G   25269.10048611  .00000319  00000+0  23524-4 0  2698",
      "2 57997  43.0020 243.3223 0001313 261.1356 151.8278 15.02538278    13"
    ]
  },
  "57998": {
    "noradId": "57998",
    "tle": [
      "1 57998C 23153H   25269.10326389  .00002274  00000+0  16780-3 0  2697",
      "2 57998  43.0019 242.8366 0001314 264.2976   2.0607 15.02533560    19"
    ]
  },
  "57999": {
    "noradId": "57999",
    "tle": [
      "1 57999C 23153J   25269.10048611 -.00003505  00000+0 -25861-3 0  2697",
      "2 57999  43.0018 243.1510 0001311 264.6984 220.3916 15.02538603    15"
    ]
  },
  "58000": {
    "noradId": "58000",
    "tle": [
      "1 58000C 23153K   25269.10118056 -.00007621  00000+0 -56240-3 0  2690",
      "2 58000  43.0021 243.0988 0001319 271.2467 235.6501 15.02536493    13"
    ]
  },
  "58001": {
    "noradId": "58001",
    "tle": [
      "1 58001C 23153L   25269.10534722  .00065083  00000+0  48027-2 0  2690",
      "2 58001  43.0019 243.0345 0001348 266.1104 281.2987 15.02466799    17"
    ]
  },
  "58002": {
    "noradId": "58002",
    "tle": [
      "1 58002C 23153M   25269.10326389  .00003907  00000+0  28824-3 0  2690",
      "2 58002  43.0017 243.5028 0001258 266.1785  71.6813 15.02533081    12"
    ]
  },
  "58003": {
    "noradId": "58003",
    "tle": [
      "1 58003C 23153N   25269.10395833 -.00003238  00000+0 -23889-3 0  2696",
      "2 58003  43.0019 242.9966 0001315 269.0989 288.8968 15.02537250    16"
    ]
  },
  "58004": {
    "noradId": "58004",
    "tle": [
      "1 58004C 23153P   25269.09909722  .00006829  00000+0  50395-3 0  2692",
      "2 58004  43.0022 242.9844 0001354 262.3067 287.3962 15.02525621    19"
    ]
  },
  "58005": {
    "noradId": "58005",
    "tle": [
      "1 58005C 23153Q   25269.10048611  .00007263  00000+0  53591-3 0  2690",
      "2 58005  43.0019 242.8859 0001411 263.5773 329.7067 15.02527071    10"
    ]
  },
  "58006": {
    "noradId": "58006",
    "tle": [
      "1 58006C 23153R   25269.10048611  .00002461  00000+0  18156-3 0  2694",
      "2 58006  43.0020 217.8778 0001366 269.2313 248.5268 15.02531561    17"
    ]
  },
  "58007": {
    "noradId": "58007",
    "tle": [
      "1 58007C 23153S   25269.10326389  .00010143  00000+0  36720-3 0  2699",
      "2 58007  43.0013  47.8769 0001483 270.0522 258.3187 15.27585031    10"
    ]
  },
  "58008": {
    "noradId": "58008",
    "tle": [
      "1 58008C 23153T   25269.10048611  .00006597  00000+0  48679-3 0  2693",
      "2 58008  43.0020 243.1840 0001189 258.0954 208.9747 15.02526112    19"
    ]
  },
  "58009": {
    "noradId": "58009",
    "tle": [
      "1 58009C 23153U   25269.10326389  .00008601  00000+0  63474-3 0  2693",
      "2 58009  43.0019 242.9105 0001344 263.7239 326.5795 15.02522725    17"
    ]
  },
  "58010": {
    "noradId": "58010",
    "tle": [
      "1 58010C 23153V   25269.10187500  .00006863  00000+0  50643-3 0  2697",
      "2 58010  43.0019 243.6379 0001281 262.8047  13.4378 15.02526550    16"
    ]
  },
  "58011": {
    "noradId": "58011",
    "tle": [
      "1 58011C 23153W   25269.10326389  .00000879  00000+0  64858-4 0  2693",
      "2 58011  43.0019 243.5868 0001375 262.3241  39.4714 15.02536602    15"
    ]
  },
  "58012": {
    "noradId": "58012",
    "tle": [
      "1 58012C 23153X   25269.10465278  .00007279  00000+0  53708-3 0  2697",
      "2 58012  43.0018 243.4490 0001342 274.5115  88.9024 15.02526414    17"
    ]
  },
  "58028": {
    "noradId": "58028",
    "tle": [
      "1 58028C 23156A   25269.10118056 -.00017399  00000+0 -58583-3 0  2698",
      "2 58028  53.1586 122.6714 0001228  70.6042 143.9267 15.30240505    16"
    ]
  },
  "58029": {
    "noradId": "58029",
    "tle": [
      "1 58029C 23156B   25269.10256944 -.00003460  00000+0 -11660-3 0  2697",
      "2 58029  53.1578 122.7736 0001222  89.1248  80.8157 15.30197996    12"
    ]
  },
  "58030": {
    "noradId": "58030",
    "tle": [
      "1 58030C 23156C   25269.10395833  .00007505  00000+0  25293-3 0  2699",
      "2 58030  53.1566 122.8683 0001101  89.3144 303.0381 15.30185609    13"
    ]
  },
  "58031": {
    "noradId": "58031",
    "tle": [
      "1 58031C 23156D   25269.10187500 -.00006420  00000+0 -21634-3 0  2692",
      "2 58031  53.1570 132.8896 0000984  88.7598 193.8206 15.30200596    14"
    ]
  },
  "58032": {
    "noradId": "58032",
    "tle": [
      "1 58032C 23156E   25269.09979167  .00035275  00000+0  11891-2 0  2690",
      "2 58032  53.1573 122.9582 0001160  88.1415 246.3167 15.30151649    13"
    ]
  },
  "58033": {
    "noradId": "58033",
    "tle": [
      "1 58033C 23156F   25269.10048611 -.00033580  00000+0 -11322-2 0  2692",
      "2 58033  53.1564 212.3988 0001142  82.9051  54.1585 15.30213234    14"
    ]
  },
  "58034": {
    "noradId": "58034",
    "tle": [
      "1 58034C 23156G   25269.10256944 -.00001731  00000+0 -58340-4 0  2699",
      "2 58034  53.1576 122.9743 0001289  82.1327 256.0222 15.30195733    17"
    ]
  },
  "58035": {
    "noradId": "58035",
    "tle": [
      "1 58035C 23156H   25269.10534722 -.00007752  00000+0 -26124-3 0  2696",
      "2 58035  53.1591 122.5904 0001046  81.6684 185.0270 15.30200821    10"
    ]
  },
  "58036": {
    "noradId": "58036",
    "tle": [
      "1 58036C 23156J   25269.10187500 -.00006369  00000+0 -21464-3 0  2690",
      "2 58036  53.1581 122.6931 0001078  91.7261 109.2970 15.30201186    19"
    ]
  },
  "58037": {
    "noradId": "58037",
    "tle": [
      "1 58037C 23156K   25269.10534722 -.00002213  00000+0 -74603-4 0  2691",
      "2 58037  53.1600 212.6827 0001088  85.9437 275.0331 15.30191346    16"
    ]
  },
  "58038": {
    "noradId": "58038",
    "tle": [
      "1 58038C 23156L   25269.09979167  .00003631  00000+0  12236-3 0  2692",
      "2 58038  53.1570 120.0369 0001006  91.4517   8.5700 15.30190437    16"
    ]
  },
  "58039": {
    "noradId": "58039",
    "tle": [
      "1 58039C 23156M   25269.11437500  .00099385  00000+0  48605-2 0  2695",
      "2 58039  53.1586 218.9223 0001978 113.9760 327.9128 15.17602575    16"
    ]
  },
  "58040": {
    "noradId": "58040",
    "tle": [
      "1 58040C 23156N   25269.10256944  .00002397  00000+0  80788-4 0  2694",
      "2 58040  53.1594 212.6347 0000892  86.5484 299.8060 15.30194309    15"
    ]
  },
  "58041": {
    "noradId": "58041",
    "tle": [
      "1 58041C 23156P   25269.09979167  .00005962  00000+0  20093-3 0  2695",
      "2 58041  53.1594 122.7394 0001220  90.3420 168.8483 15.30188083    14"
    ]
  },
  "58042": {
    "noradId": "58042",
    "tle": [
      "1 58042C 23156Q   25269.09909722  .00032022  00000+0  10784-2 0  2698",
      "2 58042  53.1588 120.2681 0000784  78.4419 185.8153 15.30185016    15"
    ]
  },
  "58043": {
    "noradId": "58043",
    "tle": [
      "1 58043C 23156R   25269.09909722  .00000079  00000+0  26566-5 0  2694",
      "2 58043  53.1578 122.9986 0001200  80.8225 232.3684 15.30198365    16"
    ]
  },
  "58044": {
    "noradId": "58044",
    "tle": [
      "1 58044C 23156S   25269.09909722 -.00008502  00000+0 -28661-3 0  2692",
      "2 58044  53.1596 212.7200 0001132  91.7545 217.3559 15.30192180    17"
    ]
  },
  "58045": {
    "noradId": "58045",
    "tle": [
      "1 58045C 23156T   25269.10326389 -.00023544  00000+0 -79356-3 0  2697",
      "2 58045  53.1590  45.8431 0001206  84.9458  26.0222 15.30213720    18"
    ]
  },
  "58046": {
    "noradId": "58046",
    "tle": [
      "1 58046C 23156U   25269.10326389 -.00002826  00000+0 -95205-4 0  2690",
      "2 58046  53.1610 212.6870 0001283  89.3426 271.7561 15.30202363    18"
    ]
  },
  "58047": {
    "noradId": "58047",
    "tle": [
      "1 58047C 23156V   25269.10048611 -.00012155  00000+0 -40961-3 0  2694",
      "2 58047  53.1573 212.9841 0001208  90.7921 103.7810 15.30208032    11"
    ]
  },
  "58048": {
    "noradId": "58048",
    "tle": [
      "1 58048C 23156W   25269.09562500 -.00003293  00000+0 -11102-3 0  2699",
      "2 58048  53.1580 212.5644 0001204  91.4437 309.0002 15.30187326    19"
    ]
  },
  "58051": {
    "noradId": "58051",
    "tle": [
      "1 58051C 23158A   25269.10187500 -.00006862  00000+0 -50631-3 0  2695",
      "2 58051  43.0016 204.9464 0001358 262.8106 315.0184 15.02543521    17"
    ]
  },
  "58052": {
    "noradId": "58052",
    "tle": [
      "1 58052C 23158B   25269.09979167 -.00013164  00000+0 -97152-3 0  2694",
      "2 58052  43.0019 205.0450 0001348 265.9132 264.5881 15.02539765    17"
    ]
  },
  "58053": {
    "noradId": "58053",
    "tle": [
      "1 58053C 23158C   25269.09770833 -.00006549  00000+0 -48325-3 0  2691",
      "2 58053  43.0017 204.9097 0001321 268.9040 304.4174 15.02539492    19"
    ]
  },
  "58054": {
    "noradId": "58054",
    "tle": [
      "1 58054C 23158D   25269.10256944 -.00000744  00000+0 -54915-4 0  2690",
      "2 58054  43.0018 204.8150 0001271 267.2236   8.4612 15.02535338    16"
    ]
  },
  "58055": {
    "noradId": "58055",
    "tle": [
      "1 58055C 23158E   25269.10187500 -.00011142  00000+0 -82203-3 0  2696",
      "2 58055  43.0019 204.6020 0001362 266.5247  95.5534 15.02550230    15"
    ]
  }
}